start=new Date('2022-08-08T00:00:00.000Z').valueOf();
sats=[{"CLASSIFICATION_TYPE":"U","MEAN_MOTION_DDOT":"0.0000000000000","OBJECT_ID":"2022-049T","SEMIMAJOR_AXIS":"6917.874","MEAN_MOTION_DOT":"0.00001413","RCS_SIZE":"LARGE","MEAN_ANOMALY":"307.0643","GP_ID":"209796500","ECCENTRICITY":"0.00025950","EPOCH":"2022-08-07T21:14:52.821312","MEAN_ELEMENT_THEORY":"SGP4","PERIAPSIS":"537.944","FILE":"3531552","TLE_LINE1":"1 52468U 22049T   22219.88533358  .00001413  00000-0  10688-3 0  9996","DECAY_DATE":null,"REV_AT_EPOCH":"1451","ARG_OF_PERICENTER":"53.0587","COUNTRY_CODE":"US","OBJECT_NAME":"STARLINK-3864","INCLINATION":"53.2166","OBJECT_TYPE":"PAYLOAD","NORAD_CAT_ID":"52468","APOAPSIS":"541.534","CENTER_NAME":"EARTH","PERIOD":"95.437","LAUNCH_DATE":"2022-05-06","ELEMENT_SET_NO":"999","SITE":"AFETR","BSTAR":"0.00010688000000","RA_OF_ASC_NODE":"179.0607","EPHEMERIS_TYPE":"0","TLE_LINE2":"2 52468  53.2166 179.0607 0002595  53.0587 307.0643 15.08842050 14516","REF_FRAME":"TEME","TIME_SYSTEM":"UTC","MEAN_MOTION":"15.08842050"},{"FILE":"3531552","TLE_LINE1":"1 52469U 22049R   22219.91667824 -.00020694  00000-0 -12845-2 0  9997","DECAY_DATE":null,"REV_AT_EPOCH":"130","ARG_OF_PERICENTER":"56.8080","COUNTRY_CODE":"US","OBJECT_NAME":"STARLINK-3828","INCLINATION":"53.2144","CLASSIFICATION_TYPE":"U","MEAN_MOTION_DDOT":"0.0000000000000","OBJECT_ID":"2022-049U","SEMIMAJOR_AXIS":"6917.771","MEAN_MOTION_DOT":"-0.00020694","RCS_SIZE":"LARGE","MEAN_ANOMALY":"73.5666","GP_ID":"209796235","ECCENTRICITY":"0.00027030","EPOCH":"2022-08-07T22:00:00.999936","MEAN_ELEMENT_THEORY":"SGP4","PERIAPSIS":"537.766","TLE_LINE2":"2 52469  53.2144 178.9184 0002703  56.8080  73.5666 15.08875670  1308","REF_FRAME":"TEME","TIME_SYSTEM":"UTC","MEAN_MOTION":"15.08875670","OBJECT_TYPE":"PAYLOAD","APOAPSIS":"541.506","NORAD_CAT_ID":"52469","CENTER_NAME":"EARTH","PERIOD":"95.435","LAUNCH_DATE":"2022-05-06","ELEMENT_SET_NO":"999","SITE":"AFETR","BSTAR":"-0.00128450000000","RA_OF_ASC_NODE":"178.9184","EPHEMERIS_TYPE":"0"},{"TLE_LINE1":"1 52470U 22049V   22219.91667824  .00007788  00000-0  50696-3 0  9993","FILE":"3531552","REV_AT_EPOCH":"130","DECAY_DATE":null,"COUNTRY_CODE":"US","OBJECT_NAME":"STARLINK-3859","INCLINATION":"53.2150","ARG_OF_PERICENTER":"64.3321","CLASSIFICATION_TYPE":"U","OBJECT_ID":"2022-049V","MEAN_MOTION_DDOT":"0.0000000000000","MEAN_MOTION_DOT":"0.00007788","SEMIMAJOR_AXIS":"6917.901","RCS_SIZE":"LARGE","GP_ID":"209796872","ECCENTRICITY":"0.00022890","MEAN_ANOMALY":"146.1355","EPOCH":"2022-08-07T22:00:00.999936","PERIAPSIS":"538.183","MEAN_ELEMENT_THEORY":"SGP4","TLE_LINE2":"2 52470  53.2150 178.9130 0002289  64.3321 146.1355 15.08833134  1300","REF_FRAME":"TEME","MEAN_MOTION":"15.08833134","TIME_SYSTEM":"UTC","OBJECT_TYPE":"PAYLOAD","NORAD_CAT_ID":"52470","APOAPSIS":"541.350","PERIOD":"95.438","CENTER_NAME":"EARTH","LAUNCH_DATE":"2022-05-06","ELEMENT_SET_NO":"999","SITE":"AFETR","BSTAR":"0.00050696000000","EPHEMERIS_TYPE":"0","RA_OF_ASC_NODE":"178.9130"},{"ARG_OF_PERICENTER":"60.3768","COUNTRY_CODE":"US","OBJECT_NAME":"STARLINK-3862","INCLINATION":"53.2160","DECAY_DATE":null,"REV_AT_EPOCH":"1451","FILE":"3531552","TLE_LINE1":"1 52471U 22049W   22219.88902770  .00003434  00000-0  23376-3 0  9991","MEAN_ELEMENT_THEORY":"SGP4","PERIAPSIS":"537.957","EPOCH":"2022-08-07T21:20:11.993280","GP_ID":"209796746","MEAN_ANOMALY":"299.7481","ECCENTRICITY":"0.00025790","RCS_SIZE":"LARGE","MEAN_MOTION_DOT":"0.00003434","SEMIMAJOR_AXIS":"6917.876","MEAN_MOTION_DDOT":"0.0000000000000","OBJECT_ID":"2022-049W","CLASSIFICATION_TYPE":"U","TIME_SYSTEM":"UTC","MEAN_MOTION":"15.08841440","REF_FRAME":"TEME","TLE_LINE2":"2 52471  53.2160 179.0441 0002579  60.3768 299.7481 15.08841440 14513","EPHEMERIS_TYPE":"0","RA_OF_ASC_NODE":"179.0441","BSTAR":"0.00023376000000","SITE":"AFETR","ELEMENT_SET_NO":"999","LAUNCH_DATE":"2022-05-06","CENTER_NAME":"EARTH","PERIOD":"95.437","NORAD_CAT_ID":"52471","APOAPSIS":"541.525","OBJECT_TYPE":"PAYLOAD"},{"LAUNCH_DATE":"2022-05-06","CENTER_NAME":"EARTH","PERIOD":"95.437","APOAPSIS":"541.418","NORAD_CAT_ID":"52472","OBJECT_TYPE":"PAYLOAD","EPHEMERIS_TYPE":"0","RA_OF_ASC_NODE":"179.0980","BSTAR":"-0.00003089500000","SITE":"AFETR","ELEMENT_SET_NO":"999","REF_FRAME":"TEME","TLE_LINE2":"2 52472  53.2179 179.0980 0002445  57.5823 302.5405 15.08846127 14510","TIME_SYSTEM":"UTC","MEAN_MOTION":"15.08846127","RCS_SIZE":"LARGE","SEMIMAJOR_AXIS":"6917.862","MEAN_MOTION_DOT":"-0.00000780","MEAN_MOTION_DDOT":"0.0000000000000","OBJECT_ID":"2022-049X","CLASSIFICATION_TYPE":"U","MEAN_ELEMENT_THEORY":"SGP4","PERIAPSIS":"538.035","EPOCH":"2022-08-07T20:58:59.896704","GP_ID":"209796104","MEAN_ANOMALY":"302.5405","ECCENTRICITY":"0.00024450","FILE":"3531552","TLE_LINE1":"1 52472U 22049X   22219.87430436 -.00000780  00000-0 -30895-4 0  9994","ARG_OF_PERICENTER":"57.5823","COUNTRY_CODE":"US","INCLINATION":"53.2179","OBJECT_NAME":"STARLINK-3881","DECAY_DATE":null,"REV_AT_EPOCH":"1451"},{"MEAN_MOTION_DDOT":"0.0000000000000","OBJECT_ID":"2022-049Y","CLASSIFICATION_TYPE":"U","RCS_SIZE":"LARGE","MEAN_MOTION_DOT":"0.00001245","SEMIMAJOR_AXIS":"6917.832","EPOCH":"2022-08-07T22:00:00.999936","MEAN_ANOMALY":"130.3965","GP_ID":"209796631","ECCENTRICITY":"0.00025460","MEAN_ELEMENT_THEORY":"SGP4","PERIAPSIS":"537.936","FILE":"3531552","TLE_LINE1":"1 52473U 22049Y   22219.91667824  .00001245  00000-0  96318-4 0  9990","DECAY_DATE":null,"REV_AT_EPOCH":"130","ARG_OF_PERICENTER":"60.0430","INCLINATION":"53.2148","COUNTRY_CODE":"US","OBJECT_NAME":"STARLINK-3879","NORAD_CAT_ID":"52473","APOAPSIS":"541.459","OBJECT_TYPE":"PAYLOAD","LAUNCH_DATE":"2022-05-06","PERIOD":"95.437","CENTER_NAME":"EARTH","ELEMENT_SET_NO":"999","RA_OF_ASC_NODE":"178.9208","EPHEMERIS_TYPE":"0","SITE":"AFETR","BSTAR":"0.00009631800000","REF_FRAME":"TEME","TLE_LINE2":"2 52473  53.2148 178.9208 0002546  60.0430 130.3965 15.08855669  1305","TIME_SYSTEM":"UTC","MEAN_MOTION":"15.08855669"},{"MEAN_MOTION_DDOT":"0.0000000000000","OBJECT_ID":"2022-049Z","CLASSIFICATION_TYPE":"U","RCS_SIZE":"LARGE","SEMIMAJOR_AXIS":"6900.288","MEAN_MOTION_DOT":"-0.01073885","EPOCH":"2022-08-07T22:00:00.999936","ECCENTRICITY":"0.00015420","GP_ID":"209796999","MEAN_ANOMALY":"45.2395","MEAN_ELEMENT_THEORY":"SGP4","PERIAPSIS":"521.089","FILE":"3531552","TLE_LINE1":"1 52474U 22049Z   22219.91667824 -.01073885  00000-0 -62040-1 0  9995","DECAY_DATE":null,"REV_AT_EPOCH":"130","ARG_OF_PERICENTER":"53.7501","COUNTRY_CODE":"US","OBJECT_NAME":"STARLINK-3855","INCLINATION":"53.2176","APOAPSIS":"523.217","NORAD_CAT_ID":"52474","OBJECT_TYPE":"PAYLOAD","LAUNCH_DATE":"2022-05-06","CENTER_NAME":"EARTH","PERIOD":"95.074","ELEMENT_SET_NO":"999","EPHEMERIS_TYPE":"0","RA_OF_ASC_NODE":"168.9768","BSTAR":"-0.06204000000000","SITE":"AFETR","REF_FRAME":"TEME","TLE_LINE2":"2 52474  53.2176 168.9768 0001542  53.7501  45.2395 15.14613913  1302","TIME_SYSTEM":"UTC","MEAN_MOTION":"15.14613913"},{"MEAN_MOTION":"15.08840301","TIME_SYSTEM":"UTC","TLE_LINE2":"2 52475  53.2179 179.0934 0002581  58.9876 301.1369 15.08840301 14518","REF_FRAME":"TEME","SITE":"AFETR","BSTAR":"0.00002850500000","RA_OF_ASC_NODE":"179.0934","EPHEMERIS_TYPE":"0","ELEMENT_SET_NO":"999","PERIOD":"95.438","CENTER_NAME":"EARTH","LAUNCH_DATE":"2022-05-06","OBJECT_TYPE":"PAYLOAD","APOAPSIS":"541.530","NORAD_CAT_ID":"52475","INCLINATION":"53.2179","COUNTRY_CODE":"US","OBJECT_NAME":"STARLINK-3882","ARG_OF_PERICENTER":"58.9876","REV_AT_EPOCH":"1451","DECAY_DATE":null,"TLE_LINE1":"1 52475U 22049AA  22219.87525981  .00000165  00000-0  28505-4 0  9997","FILE":"3531552","PERIAPSIS":"537.959","MEAN_ELEMENT_THEORY":"SGP4","GP_ID":"209796351","ECCENTRICITY":"0.00025810","MEAN_ANOMALY":"301.1369","EPOCH":"2022-08-07T21:00:22.447584","MEAN_MOTION_DOT":"0.00000165","SEMIMAJOR_AXIS":"6917.879","RCS_SIZE":"LARGE","CLASSIFICATION_TYPE":"U","OBJECT_ID":"2022-049AA","MEAN_MOTION_DDOT":"0.0000000000000"},{"EPOCH":"2022-08-07T21:30:27.445536","ECCENTRICITY":"0.00031280","GP_ID":"209796501","MEAN_ANOMALY":"325.4857","MEAN_ELEMENT_THEORY":"SGP4","PERIAPSIS":"513.311","MEAN_MOTION_DDOT":"0.0000000000000","OBJECT_ID":"2022-049AB","CLASSIFICATION_TYPE":"U","RCS_SIZE":"LARGE","MEAN_MOTION_DOT":"-0.00306104","SEMIMAJOR_AXIS":"6893.602","DECAY_DATE":null,"REV_AT_EPOCH":"1589","ARG_OF_PERICENTER":"34.6342","COUNTRY_CODE":"US","OBJECT_NAME":"STARLINK-3835","INCLINATION":"53.2114","FILE":"3531552","TLE_LINE1":"1 52476U 22049AB  22219.89615099 -.00306104  00000-0 -16026-1 0  9996","ELEMENT_SET_NO":"999","EPHEMERIS_TYPE":"0","RA_OF_ASC_NODE":"169.0982","SITE":"AFETR","BSTAR":"-0.01602600000000","NORAD_CAT_ID":"52476","APOAPSIS":"517.623","OBJECT_TYPE":"PAYLOAD","LAUNCH_DATE":"2022-05-06","CENTER_NAME":"EARTH","PERIOD":"94.936","TIME_SYSTEM":"UTC","MEAN_MOTION":"15.16817949","REF_FRAME":"TEME","TLE_LINE2":"2 52476  53.2114 169.0982 0003128  34.6342 325.4857 15.16817949 15891"},{"TLE_LINE1":"1 52477U 22049AC  22219.91667824 -.01073961  00000-0 -62566-1 0  9996","FILE":"3531552","OBJECT_NAME":"STARLINK-3860","COUNTRY_CODE":"US","INCLINATION":"53.2175","ARG_OF_PERICENTER":"50.3961","REV_AT_EPOCH":"1481","DECAY_DATE":null,"RCS_SIZE":"LARGE","MEAN_MOTION_DOT":"-0.01073961","SEMIMAJOR_AXIS":"6901.184","OBJECT_ID":"2022-049AC","MEAN_MOTION_DDOT":"0.0000000000000","CLASSIFICATION_TYPE":"U","PERIAPSIS":"521.972","MEAN_ELEMENT_THEORY":"SGP4","EPOCH":"2022-08-07T22:00:00.999936","GP_ID":"209796236","ECCENTRICITY":"0.00015600","MEAN_ANOMALY":"31.2162","REF_FRAME":"TEME","TLE_LINE2":"2 52477  53.2175 168.9739 0001560  50.3961  31.2162 15.14319092 14813","MEAN_MOTION":"15.14319092","TIME_SYSTEM":"UTC","LAUNCH_DATE":"2022-05-06","CENTER_NAME":"EARTH","PERIOD":"95.092","APOAPSIS":"524.125","NORAD_CAT_ID":"52477","OBJECT_TYPE":"PAYLOAD","EPHEMERIS_TYPE":"0","RA_OF_ASC_NODE":"168.9739","BSTAR":"-0.06256600000000","SITE":"AFETR","ELEMENT_SET_NO":"999"}];
